{
    "links": {
        "self": "http://www.neowsapp.com/rest/v1/neo/3838872?api_key=iIulBulltgU6a56xZRHN4H3l9WmuAYTsLGpBGhQ2"
    },
    "id": "3838872",
    "neo_reference_id": "3838872",
    "name": "(2019 EE)",
    "designation": "2019 EE",
    "nasa_jpl_url": "http://ssd.jpl.nasa.gov/sbdb.cgi?sstr=3838872",
    "absolute_magnitude_h": 26.3,
    "estimated_diameter": {
        "kilometers": {
            "estimated_diameter_min": 0.0146067964,
            "estimated_diameter_max": 0.0326617897
        },
        "meters": {
            "estimated_diameter_min": 14.6067964271,
            "estimated_diameter_max": 32.6617897446
        },
        "miles": {
            "estimated_diameter_min": 0.0090762397,
            "estimated_diameter_max": 0.020295089
        },
        "feet": {
            "estimated_diameter_min": 47.92256199,
            "estimated_diameter_max": 107.1581062656
        }
    },
    "is_potentially_hazardous_asteroid": false,
    "close_approach_data": [
        {
            "close_approach_date": "2019-03-07",
            "close_approach_date_full": "2019-Mar-07 02:02",
            "epoch_date_close_approach": 1551924120000,
            "relative_velocity": {
                "kilometers_per_second": "12.2310687542",
                "kilometers_per_hour": "44031.847515197",
                "miles_per_hour": "27359.6776963178"
            },
            "miss_distance": {
                "astronomical": "0.0185959842",
                "lunar": "7.2338378538",
                "kilometers": "2781919.626873654",
                "miles": "1728604.6996742652"
            },
            "orbiting_body": "Earth"
        }
    ],
    "orbital_data": {
        "orbit_id": "2",
        "orbit_determination_date": "2019-03-06 07:05:00",
        "first_observation_date": "2019-03-01",
        "last_observation_date": "2019-03-06",
        "data_arc_in_days": 5,
        "observations_used": 23,
        "orbit_uncertainty": "8",
        "minimum_orbit_intersection": ".018229",
        "jupiter_tisserand_invariant": "3.382",
        "epoch_osculation": "2458545.5",
        "eccentricity": ".5511195679857661",
        "semi_major_axis": "2.228417930417405",
        "inclination": "16.56962992672863",
        "ascending_node_longitude": "345.2440612435832",
        "orbital_period": "1215.04788341653",
        "perihelion_distance": "1.00029320331403",
        "perihelion_argument": "194.2526536195866",
        "aphelion_distance": "3.456542657520781",
        "perihelion_time": "2458560.521103631881",
        "mean_anomaly": "355.5494780236382",
        "mean_motion": ".2962846196544409",
        "equinox": "J2000",
        "orbit_class": {
            "orbit_class_type": "APO",
            "orbit_class_description": "Near-Earth asteroid orbits which cross the Earth’s orbit similar to that of 1862 Apollo",
            "orbit_class_range": "a (semi-major axis) > 1.0 AU; q (perihelion) < 1.017 AU"
        }
    },
    "is_sentry_object": false
}